{
  "type": "FeatureCollection",
  "features": [
    {
      "type": "Feature",
      "properties": {
        "norad_id": 41589,
        "name": "EUTELSAT 117 WEST B (WAAS/PRN 131)",
        "group": "gnss",
        "lat": -0.004434184757579504,
        "lon": 146.23235471241932,
        "alt_km": 35787.86449348172,
        "timestamp": "2025-12-21T11:31:43.097609+00:00",
        "meta_object_name": "EUTELSAT 117 WEST B (WAAS/PRN 131)",
        "meta_object_id": "2016-038B",
        "meta_epoch": "2025-12-21T04:32:38.608800",
        "meta_mean_motion": 1.00270361,
        "meta_eccentricity": 3.44e-05,
        "meta_inclination": 0.0136,
        "meta_ra_of_asc_node": 151.844,
        "meta_arg_of_pericenter": 158.1973,
        "meta_mean_anomaly": 91.1465,
        "meta_ephemeris_type": 0,
        "meta_classification_type": "U",
        "meta_norad_cat_id": 41589,
        "meta_element_set_no": 999,
        "meta_rev_at_epoch": 3487,
        "meta_bstar": 0,
        "meta_mean_motion_dot": 1.1e-07,
        "meta_mean_motion_ddot": 0,
        "tle_line1": "1 41589U 16038B   25355.18933575  .00000011  00000+0  00000+0 0  9996",
        "tle_line2": "2 41589   0.0136 151.8440 0000344 158.1973  91.1465  1.00270361 34875"
      },
      "geometry": {
        "type": "Point",
        "coordinates": [
          146.23235471241932,
          -0.004434184757579504
        ]
      }
    },
    {
      "type": "Feature",
      "properties": {
        "norad_id": 41859,
        "name": "GSAT0207 (GALILEO 15)",
        "group": "gnss",
        "lat": -51.4164291006618,
        "lon": 46.190268463813396,
        "alt_km": 23221.67530994917,
        "timestamp": "2025-12-21T11:31:43.097622+00:00",
        "meta_object_name": "GSAT0207 (GALILEO 15)",
        "meta_object_id": "2016-069A",
        "meta_epoch": "2025-12-20T10:10:36.025248",
        "meta_mean_motion": 1.7047449,
        "meta_eccentricity": 0.00023887,
        "meta_inclination": 55.3864,
        "meta_ra_of_asc_node": 106.0375,
        "meta_arg_of_pericenter": 318.3578,
        "meta_mean_anomaly": 41.5905,
        "meta_ephemeris_type": 0,
        "meta_classification_type": "U",
        "meta_norad_cat_id": 41859,
        "meta_element_set_no": 999,
        "meta_rev_at_epoch": 5635,
        "meta_bstar": 0,
        "meta_mean_motion_dot": -2e-08,
        "meta_mean_motion_ddot": 0,
        "tle_line1": "1 41859U 16069A   25354.42402807 -.00000002  00000+0  00000+0 0  9996",
        "tle_line2": "2 41859  55.3864 106.0375 0002388 318.3578  41.5905  1.70474490 56357"
      },
      "geometry": {
        "type": "Point",
        "coordinates": [
          46.190268463813396,
          -51.4164291006618
        ]
      }
    },
    {
      "type": "Feature",
      "properties": {
        "norad_id": 41860,
        "name": "GSAT0212 (GALILEO 16)",
        "group": "gnss",
        "lat": 14.832618574801907,
        "lon": 116.52345440771889,
        "alt_km": 23214.336543429374,
        "timestamp": "2025-12-21T11:31:43.097634+00:00",
        "meta_object_name": "GSAT0212 (GALILEO 16)",
        "meta_object_id": "2016-069B",
        "meta_epoch": "2025-12-20T06:39:51.383520",
        "meta_mean_motion": 1.70474695,
        "meta_eccentricity": 0.00020516,
        "meta_inclination": 55.384,
        "meta_ra_of_asc_node": 106.037,
        "meta_arg_of_pericenter": 19.5569,
        "meta_mean_anomaly": 340.4166,
        "meta_ephemeris_type": 0,
        "meta_classification_type": "U",
        "meta_norad_cat_id": 41860,
        "meta_element_set_no": 999,
        "meta_rev_at_epoch": 5660,
        "meta_bstar": 0,
        "meta_mean_motion_dot": -3e-08,
        "meta_mean_motion_ddot": 0,
        "tle_line1": "1 41860U 16069B   25354.27767805 -.00000003  00000+0  00000+0 0  9994",
        "tle_line2": "2 41860  55.3840 106.0370 0002051  19.5569 340.4166  1.70474695 56600"
      },
      "geometry": {
        "type": "Point",
        "coordinates": [
          116.52345440771889,
          14.832618574801907
        ]
      }
    },
    {
      "type": "Feature",
      "properties": {
        "norad_id": 41861,
        "name": "GSAT0213 (GALILEO 17)",
        "group": "gnss",
        "lat": 22.317204251659163,
        "lon": -90.43704115326365,
        "alt_km": 23224.2892567764,
        "timestamp": "2025-12-21T11:31:43.097645+00:00",
        "meta_object_name": "GSAT0213 (GALILEO 17)",
        "meta_object_id": "2016-069C",
        "meta_epoch": "2025-12-17T17:05:43.699776",
        "meta_mean_motion": 1.70474994,
        "meta_eccentricity": 0.000259,
        "meta_inclination": 55.385,
        "meta_ra_of_asc_node": 106.1156,
        "meta_arg_of_pericenter": 282.1972,
        "meta_mean_anomaly": 77.7328,
        "meta_ephemeris_type": 0,
        "meta_classification_type": "U",
        "meta_norad_cat_id": 41861,
        "meta_element_set_no": 999,
        "meta_rev_at_epoch": 5642,
        "meta_bstar": 0,
        "meta_mean_motion_dot": -9e-08,
        "meta_mean_motion_ddot": 0,
        "tle_line1": "1 41861U 16069C   25351.71231134 -.00000009  00000+0  00000+0 0  9998",
        "tle_line2": "2 41861  55.3850 106.1156 0002590 282.1972  77.7328  1.70474994 56421"
      },
      "geometry": {
        "type": "Point",
        "coordinates": [
          -90.43704115326365,
          22.317204251659163
        ]
      }
    },
    {
      "type": "Feature",
      "properties": {
        "norad_id": 41862,
        "name": "GSAT0214 (GALILEO 18)",
        "group": "gnss",
        "lat": 47.14419609380586,
        "lon": 154.01615241523976,
        "alt_km": 23219.625692358164,
        "timestamp": "2025-12-21T11:31:43.097706+00:00",
        "meta_object_name": "GSAT0214 (GALILEO 18)",
        "meta_object_id": "2016-069D",
        "meta_epoch": "2025-12-17T20:35:58.649280",
        "meta_mean_motion": 1.70474854,
        "meta_eccentricity": 0.00015422,
        "meta_inclination": 55.383,
        "meta_ra_of_asc_node": 106.1044,
        "meta_arg_of_pericenter": 289.1766,
        "meta_mean_anomaly": 70.7658,
        "meta_ephemeris_type": 0,
        "meta_classification_type": "U",
        "meta_norad_cat_id": 41862,
        "meta_element_set_no": 999,
        "meta_rev_at_epoch": 5655,
        "meta_bstar": 0,
        "meta_mean_motion_dot": -9e-08,
        "meta_mean_motion_ddot": 0,
        "tle_line1": "1 41862U 16069D   25351.85831770 -.00000009  00000+0  00000+0 0  9996",
        "tle_line2": "2 41862  55.3830 106.1044 0001542 289.1766  70.7658  1.70474854 56558"
      },
      "geometry": {
        "type": "Point",
        "coordinates": [
          154.01615241523976,
          47.14419609380586
        ]
      }
    },
    {
      "type": "Feature",
      "properties": {
        "norad_id": 42709,
        "name": "SES-15 (WAAS/PRN 133)",
        "group": "gnss",
        "lat": 0.022014900331334044,
        "lon": 134.09485049236312,
        "alt_km": 35783.48490599059,
        "timestamp": "2025-12-21T11:31:43.097720+00:00",
        "meta_object_name": "SES-15 (WAAS/PRN 133)",
        "meta_object_id": "2017-026A",
        "meta_epoch": "2025-12-20T17:45:11.037312",
        "meta_mean_motion": 1.00276536,
        "meta_eccentricity": 5.36e-05,
        "meta_inclination": 0.0196,
        "meta_ra_of_asc_node": 334.827,
        "meta_arg_of_pericenter": 216.7699,
        "meta_mean_anomaly": 35.1349,
        "meta_ephemeris_type": 0,
        "meta_classification_type": "U",
        "meta_norad_cat_id": 42709,
        "meta_element_set_no": 999,
        "meta_rev_at_epoch": 564,
        "meta_bstar": 0,
        "meta_mean_motion_dot": 8.2e-07,
        "meta_mean_motion_ddot": 0,
        "tle_line1": "1 42709U 17026A   25354.73971108  .00000082  00000+0  00000+0 0  9991",
        "tle_line2": "2 42709   0.0196 334.8270 0000536 216.7699  35.1349  1.00276536  5641"
      },
      "geometry": {
        "type": "Point",
        "coordinates": [
          134.09485049236312,
          0.022014900331334044
        ]
      }
    },
    {
      "type": "Feature",
      "properties": {
        "norad_id": 42738,
        "name": "QZS-2 (QZSS/PRN 194)",
        "group": "gnss",
        "lat": 17.68788648995699,
        "lon": 43.22301162893188,
        "alt_km": 37074.29780104599,
        "timestamp": "2025-12-21T11:31:43.097734+00:00",
        "meta_object_name": "QZS-2 (QZSS/PRN 194)",
        "meta_object_id": "2017-028A",
        "meta_epoch": "2025-12-18T13:55:30.556128",
        "meta_mean_motion": 1.00281517,
        "meta_eccentricity": 0.07566042,
        "meta_inclination": 39.7045,
        "meta_ra_of_asc_node": 245.7969,
        "meta_arg_of_pericenter": 269.5406,
        "meta_mean_anomaly": 282.9842,
        "meta_ephemeris_type": 0,
        "meta_classification_type": "U",
        "meta_norad_cat_id": 42738,
        "meta_element_set_no": 999,
        "meta_rev_at_epoch": 581,
        "meta_bstar": 0,
        "meta_mean_motion_dot": -1.25e-06,
        "meta_mean_motion_ddot": 0,
        "tle_line1": "1 42738U 17028A   25352.58021477 -.00000125  00000+0  00000+0 0  9990",
        "tle_line2": "2 42738  39.7045 245.7969 0756604 269.5406 282.9842  1.00281517  5810"
      },
      "geometry": {
        "type": "Point",
        "coordinates": [
          43.22301162893188,
          17.68788648995699
        ]
      }
    }
  ]
}